AMAZONAS NEXUS          
1 55508U 23017A   24287.01021685 -.00000283  00000+0  00000+0 0  9994
2 55508   0.0182  68.0226 0001645  94.5203 162.1785  1.00270566  6114
ZHONGXING-26            
1 55686U 23023A   24289.84140998 -.00000356  00000+0  00000+0 0  9991
2 55686   0.0691  73.1404 0001030  65.8178 313.9698  1.00268134  6118
LUCH-5X (OLYMP-K 2)     
1 55841U 23031A   24290.56955715 -.00000011  00000+0  00000+0 0  9993
2 55841   0.0306 264.0468 0001696 354.8520 330.8164  1.00274386  5846
GAOFEN-13 02            
1 55912U 23036A   24289.80035378 -.00000225  00000+0  00000+0 0  9993
2 55912   1.7724 309.1138 0002124   2.2495 149.7591  1.00268706  5989
SES-18                  
1 55970U 23038A   24289.60274750 -.00000103  00000+0  00000+0 0  9991
2 55970   0.0292 259.9888 0002917 337.7577 260.7835  1.00270496  5991
SES-19                  
1 55971U 23038B   24290.20219413  .00000086  00000+0  00000+0 0  9994
2 55971   0.0231 277.2904 0001642 282.5261 123.2986  1.00270251  5975
INTELSAT 40E (IS-40E)   
1 56174U 23052A   24289.40835597 -.00000176  00000+0  00000+0 0  9994
2 56174   0.0071 215.5383 0002446 339.2684 245.6506  1.00271109  5702
VIASAT-3                
1 56370U 23060A   24289.60561455 -.00000187  00000+0  00000+0 0  9994
2 56370   0.0213 249.4478 0000055 185.0165  79.2879  1.00272020  5330
ARCTURUS                
1 56371U 23060B   24290.56596591 -.00000117  00000+0  00000+0 0  9994
2 56371   1.1955  87.2775 0000536 339.1697 240.8836  1.00272127  5359
GS-1                    
1 56372U 23060C   24289.51090993 -.00000142  00000+0  00000+0 0  9991
2 56372   1.1452  86.6175 0002799 254.5757 308.5397  1.00241092  1424
BEIDOU-3 G4             
1 56564U 23066A   24289.79805465 -.00000116  00000+0  00000+0 0  9999
2 56564   1.8280 288.6783 0005637 242.6812 300.7827  1.00272075  5281
ARABSAT-7B (BADR-8)     
1 56757U 23075A   24289.69987978  .00000143  00000+0  00000+0 0  9991
2 56757   0.0732  26.0087 0001696 317.0006 319.6861  1.00270867  5028
IRNSS-1J (NVS-01)       
1 56759U 23076A   24290.43526970 -.00000343  00000+0  00000+0 0  9992
2 56759   3.6916 263.4549 0006982 344.0993  64.1203  1.00268014  5103
NUSANTARA TIGA (SATRIA) 
1 57045U 23086A   24289.79527447 -.00000236  00000+0  00000+0 0  9990
2 57045   0.0496  30.4468 0003478 260.4659 166.2154  1.00271804  3653
H2SAT (HEINRICH HERTZ)  
1 57213U 23093A   24289.62333816 -.00000002  00000+0  00000+0 0  9993
2 57213   0.0213 206.0846 0001318  15.6871  27.7499  1.00268746  4807
SYRACUSE 4B             
1 57214U 23093B   24290.38244097 -.00000056  00000+0  00000+0 0  9990
2 57214   0.0164 236.1133 0000233  26.2988 254.0860  1.00270337  5513
JUPITER 3 (ECHOSTAR 24) 
1 57479U 23108A   24287.20268617 -.00000150  00000+0  00000+0 0  9996
2 57479   0.0186 202.5651 0001184   5.1499 152.2786  1.00269447  4516
GALAXY 37 (G-37)        
1 57493U 23112A   24289.65513669  .00000046  00000+0  00000+0 0  9991
2 57493   0.0165 287.8338 0002178 287.4820 278.2315  1.00273007  4439
LUDI TANCE-4 01A        
1 57624U 23120A   24290.64051691 -.00000197  00000+0  00000+0 0  9997
2 57624  15.6165 208.8605 0002337  31.7819 105.3359  1.00270162  4439
TJS-10                  
1 58204U 23169A   24289.80066105  .00000003  00000+0  00000+0 0  9992
2 58204   0.9612  87.5538 0005128 144.5626 254.0587  1.00275946  3434
ZHONGXING-6E            
1 58253U 23172A   24289.40882894 -.00000363  00000+0  00000+0 0  9997
2 58253   0.0446  79.1479 0002870 114.6048  93.3647  1.00268253  3548
YAOGAN-41               
1 58582U 23197A   24289.83939501 -.00000372  00000+0  00000+0 0  9994
2 58582   4.3482 307.9144 0014747 195.1088 307.2097  1.00268952  3211
OVZON-3                 
1 58698U 24003A   24289.99243035  .00000049  00000+0  00000+0 0  9996
2 58698   0.0102 194.8675 0001408  57.8848 189.2591  1.00272269  3124
INSAT-3DS               
1 58990U 24033A   24289.81433396 -.00000158  00000+0  00000+0 0  9998
2 58990   0.0452  69.1619 0001611 139.1214 191.8259  1.00271892 40959
MERAH PUTIH 2           
1 58995U 24035A   24289.40882894 -.00000360  00000+0  00000+0 0  9996
2 58995   0.0315  82.3968 0001396 130.6740  71.5157  1.00270099  2470
TJS-11                  
1 59020U 24037A   24289.86771556 -.00000379  00000+0  00000+0 0  9990
2 59020   5.1269 321.8067 0006096 268.6864 227.0115  1.00266800  2473
HULIANWAN GAOGUI-01 (H*)
1 59069U 24040A   24290.27329028  .00000154  00000+0  00000+0 0  9997
2 59069   0.0233  10.6307 0006775 317.2268 189.4604  1.00271560  2477
EUTELSAT 36D            
1 59346U 24059A   24289.63037545  .00000154  00000+0  00000+0 0  9993
2 59346   0.0180 249.9519 0000120 215.3340 182.1759  1.00270726  2031
PAKSAT-MM1              
1 59915U 24104A   24290.33313346  .00000152  00000+0  00000+0 0  9999
2 59915   0.0100 182.6125 0002478 117.0881 243.8066  1.00273832  1482
GOES 19                 
1 60133U 24119A   24290.03413294 -.00000184  00000+0  00000+0 0  9995
2 60133   0.0419  58.0340 0000700  54.3380 195.4930  1.00271578  1204
ZHONGXING-3A            
1 60179U 24122A   24290.57802359 -.00000315  00000+0  00000+0 0  9998
2 60179   0.0183  36.8351 0003327 200.4201  98.0014  1.00272617  1219
TURKSAT 6A              
1 60233U 24127A   24289.79210699  .00000113  00000+0  00000+0 0  9991
2 60233   0.0333 281.6348 0004004 323.9127 114.4403  1.00274129   993
HULIANWAN GAOGUI-02 (H*)
1 60327U 24135A   24290.36851122 -.00000175  00000+0  00000+0 0  9990
2 60327   0.0053 357.4052 0002840 246.2601  67.4760  1.00269365   911
